STARLINK-31054          
1 58619U 23203B   26068.06150238  .00000057  00000+0  11595-4 0  9992
2 58619  43.0061  70.7851 0001116 265.1004  94.9720 15.27568374123465
PHISAT 2                
1 60470U 24149C   26068.78834181  .00008925  00000+0  31421-3 0  9996
2 60470  97.3806 148.6498 0001175 168.6230 191.5037 15.29548631 86792
